0 OPS 4682 DEB
1 13131U 65027H   13280.86967505  .00000151  00000-0  50101-3 0  6476
2 13131 090.2535 235.9620 0030445 029.6566 027.3424 12.96302211290170
0 OPS 4682 DEB
1 13131U 65027H   13281.87319771 -.00000113  00000-0 -42231-3 0  6480
2 13131 090.2535 235.9853 0030382 027.1725 030.3063 12.96306221290301
0 OPS 4682 DEB
1 13131U 65027H   13291.31079051  .00001148  00000-0  39870-2 0  6496
2 13131 090.2566 236.2041 0029892 003.2475 152.0263 12.96310967291520
